NORAD_CAT_ID,OBJECT_NAME,OBJECT_TYPE,EPOCH,MEAN_MOTION,ECCENTRICITY,INCLINATION,RA_OF_ASC_NODE,ARG_OF_PERICENTER,MEAN_ANOMALY,BSTAR,MEAN_MOTION_DOT,MEAN_MOTION_DDOT,TLE_LINE0,TLE_LINE1,TLE_LINE2,SEMIMAJOR_AXIS,PERIOD,APOGEE,PERIGEE,DECAYED
55641.0,STARLINK-5065,PAYLOAD,2023-10-01 17:30:22,14.98325991,0.0003389,69.9988,268.3696,276.1448,83.9325,-0.00012388,-1.571e-05,0.0,0 STARLINK-5065,1 55641U 23021P   23274.72942776 -.00001571  00000-0 -12388-3 0  9992,2 55641  69.9988 268.3696 0003389 276.1448  83.9325 14.98325991 35488,6950.205,96.107,574.426,569.715,0.0
55641.0,STARLINK-5065,PAYLOAD,2023-10-02 03:07:11,14.98328151,0.0003232,69.9992,267.36,271.3414,88.7375,-0.00018428,-2.291e-05,0.0,0 STARLINK-5065,1 55641U 23021P   23275.12998896 -.00002291  00000-0 -18428-3 0  9992,2 55641  69.9992 267.3600 0003232 271.3414  88.7375 14.98328151 35247,6950.199,96.107,574.31,569.817,0.0
55641.0,STARLINK-5065,PAYLOAD,2023-10-02 09:31:43,14.98331337,0.0003171,69.9992,266.6864,269.987,90.0926,-0.00015477,-1.939e-05,0.0,0 STARLINK-5065,1 55641U 23021P   23275.39702626 -.00001939  00000-0 -15477-3 0  9994,2 55641  69.9992 266.6864 0003171 269.9870  90.0926 14.98331337 35587,6950.189,96.107,574.258,569.85,0.0
55641.0,STARLINK-5065,PAYLOAD,2023-10-03 04:45:19,14.9832319,0.0003212,69.999,264.6663,272.9911,87.088,0.00010436,1.152e-05,0.0,0 STARLINK-5065,1 55641U 23021P   23276.19814598  .00001152  00000-0  10436-3 0  9990,2 55641  69.9990 264.6663 0003212 272.9911  87.0880 14.98323190 35400,6950.214,96.107,574.311,569.847,0.0
55641.0,STARLINK-5065,PAYLOAD,2023-10-03 09:33:43,14.98327675,0.00032,69.9991,264.1614,272.8705,87.2087,0.00012401,1.387e-05,0.0,0 STARLINK-5065,1 55641U 23021P   23276.39842311  .00001387  00000-0  12401-3 0  9990,2 55641  69.9991 264.1614 0003200 272.8705  87.2087 14.98327675 35738,6950.2,96.107,574.289,569.841,0.0
55641.0,STARLINK-5065,PAYLOAD,2023-10-03 15:58:16,14.98325184,0.0003184,69.9992,263.488,272.9324,87.1471,8.3357e-05,9.02e-06,0.0,0 STARLINK-5065,1 55641U 23021P   23276.66546640  .00000902  00000-0  83357-4 0  9997,2 55641  69.9992 263.4880 0003184 272.9324  87.1471 14.98325184 35778,6950.208,96.107,574.286,569.86,0.0
55641.0,STARLINK-5065,PAYLOAD,2023-10-04 09:35:44,14.98328475,0.0003176,69.9993,261.6365,272.4937,87.5858,8.6258e-05,9.36e-06,0.0,0 STARLINK-5065,1 55641U 23021P   23277.39982583  .00000936  00000-0  86258-4 0  9998,2 55641  69.9993 261.6365 0003176 272.4937  87.5858 14.98328475 35581,6950.198,96.107,574.27,569.855,0.0
55641.0,STARLINK-5065,PAYLOAD,2023-10-04 16:00:17,14.98328403,0.0003188,69.9993,260.9632,272.5291,87.5504,3.6479e-05,3.42e-06,0.0,0 STARLINK-5065,1 55641U 23021P   23277.66686722  .00000342  00000-0  36479-4 0  9995,2 55641  69.9993 260.9632 0003188 272.5291  87.5504 14.98328403 35924,6950.198,96.107,574.279,569.847,0.0
55641.0,STARLINK-5065,PAYLOAD,2023-10-05 09:37:45,14.98334699,0.000305,69.9995,259.1121,270.5877,89.4933,3.312e-05,3.02e-06,0.0,0 STARLINK-5065,1 55641U 23021P   23278.40122299  .00000302  00000-0  33120-4 0  9998,2 55641  69.9995 259.1121 0003050 270.5877  89.4933 14.98334699 35735,6950.178,96.107,574.163,569.924,0.0
55641.0,STARLINK-5065,PAYLOAD,2023-10-05 16:02:18,14.983313,0.0003042,69.9996,258.4386,270.6028,89.4783,3.7983e-06,-4.8e-07,0.0,0 STARLINK-5065,1 55641U 23021P   23278.66826534 -.00000048  00000-0  37983-5 0  9999,2 55641  69.9996 258.4386 0003042 270.6028  89.4783 14.98331300 36078,6950.189,96.107,574.168,569.94,0.0
55641.0,STARLINK-5065,PAYLOAD,2023-10-06 01:39:06,14.9832641,0.0003011,70.0,257.429,269.1598,90.9216,-5.0322e-05,-6.93e-06,0.0,0 STARLINK-5065,1 55641U 23021P   23279.06882998 -.00000693  00000-0 -50322-4 0  9998,2 55641  70.0000 257.4290 0003011 269.1598  90.9216 14.98326410 35838,6950.204,96.107,574.162,569.976,0.0
55641.0,STARLINK-5065,PAYLOAD,2023-10-06 08:03:38,14.98331322,0.0003022,69.9994,256.7551,273.2303,86.851,-5.5113e-05,-7.51e-06,0.0,0 STARLINK-5065,1 55641U 23021P   23279.33586782 -.00000751  00000-0 -55113-4 0  9998,2 55641  69.9994 256.7551 0003022 273.2303  86.8510 14.98331322 36178,6950.189,96.107,574.154,569.953,0.0
55641.0,STARLINK-5065,PAYLOAD,2023-10-06 16:04:19,14.98331576,0.0003003,69.9996,255.9131,273.446,86.6355,-4.6282e-05,-6.45e-06,0.0,0 STARLINK-5065,1 55641U 23021P   23279.66966710 -.00000645  00000-0 -46282-4 0  9996,2 55641  69.9996 255.9131 0003003 273.4460  86.6355 14.98331576 36222,6950.188,96.107,574.14,569.966,0.0
55641.0,STARLINK-5065,PAYLOAD,2023-10-07 01:41:07,14.98327083,0.0003071,69.9995,254.9032,271.2961,88.7846,3.0768e-05,2.74e-06,0.0,0 STARLINK-5065,1 55641U 23021P   23280.07022776  .00000274  00000-0  30768-4 0  9996,2 55641  69.9995 254.9032 0003071 271.2961  88.7846 14.98327083 35985,6950.202,96.107,574.201,569.933,0.0
55641.0,STARLINK-5065,PAYLOAD,2023-10-07 08:05:39,14.98322078,0.000302,69.9995,254.2296,270.1633,89.918,0.00019528,2.237e-05,0.0,0 STARLINK-5065,1 55641U 23021P   23280.33726689  .00002237  00000-0  19528-3 0  9990,2 55641  69.9995 254.2296 0003020 270.1633  89.9180 14.98322078 36320,6950.217,96.108,574.181,569.983,0.0
55641.0,STARLINK-5065,PAYLOAD,2023-10-07 20:54:44,14.98327988,0.0002994,69.9998,252.8837,270.034,90.0476,-1.0824e-05,-2.22e-06,0.0,0 STARLINK-5065,1 55641U 23021P   23280.87134789 -.00000222  00000-0 -10824-4 0  9998,2 55641  69.9998 252.8837 0002994 270.0340  90.0476 14.98327988 36406,6950.199,96.107,574.145,569.983,0.0
55641.0,STARLINK-5065,PAYLOAD,2023-10-08 03:19:16,14.98325754,0.0002927,70.0001,252.2103,269.6684,90.414,5.1825e-05,5.25e-06,0.0,0 STARLINK-5065,1 55641U 23021P   23281.13838838  .00000525  00000-0  51825-4 0  9994,2 55641  70.0001 252.2103 0002927 269.6684  90.4140 14.98325754 36147,6950.206,96.107,574.105,570.037,0.0
55641.0,STARLINK-5065,PAYLOAD,2023-10-08 08:07:40,14.98334189,0.000296,69.9996,251.7053,265.598,94.4841,5.7585e-05,5.94e-06,0.0,0 STARLINK-5065,1 55641U 23021P   23281.33866208  .00000594  00000-0  57585-4 0  9993,2 55641  69.9996 251.7053 0002960 265.5980  94.4841 14.98334189 36173,6950.18,96.107,574.102,569.988,0.0
55641.0,STARLINK-5065,PAYLOAD,2023-10-08 20:56:44,14.98331764,0.0002916,70.0001,250.36,267.8793,92.2032,7.5335e-05,8.06e-06,0.0,0 STARLINK-5065,1 55641U 23021P   23281.87274260  .00000806  00000-0  75335-4 0  9992,2 55641  70.0001 250.3600 0002916 267.8793  92.2032 14.98331764 36550,6950.187,96.107,574.079,570.026,0.0
55641.0,STARLINK-5065,PAYLOAD,2023-10-09 03:21:17,14.98329878,0.000292,69.9999,249.6857,268.5334,91.549,3.5623e-05,3.32e-06,0.0,0 STARLINK-5065,1 55641U 23021P   23282.13978495  .00000332  00000-0  35623-4 0  9993,2 55641  69.9999 249.6857 0002920 268.5334  91.5490 14.98329878 36296,6950.193,96.107,574.088,570.029,0.0
55641.0,STARLINK-5065,PAYLOAD,2023-10-09 08:09:41,14.98334867,0.0002755,70.0003,249.1811,267.0691,93.0153,7.3565e-05,7.85e-06,0.0,0 STARLINK-5065,1 55641U 23021P   23282.34006041  .00000785  00000-0  73565-4 0  9994,2 55641  70.0003 249.1811 0002755 267.0691  93.0153 14.98334867 36620,6950.178,96.107,573.958,570.128,0.0
55641.0,STARLINK-5065,PAYLOAD,2023-10-09 14:34:12,14.98381071,0.0002784,70.0015,248.508,263.6933,96.3909,-0.00094223,-0.00011332,0.0,0 STARLINK-5065,1 55641U 23021P   23282.60709458 -.00011332  00000-0 -94223-3 0  9990,2 55641  70.0015 248.5080 0002784 263.6933  96.3909 14.98381071 36362,6950.035,96.104,573.835,569.965,0.0
55641.0,STARLINK-5065,PAYLOAD,2023-10-10 01:47:10,14.98327478,0.0002419,70.0007,247.3289,272.9586,87.1296,3.2241e-05,2.92e-06,0.0,0 STARLINK-5065,1 55641U 23021P   23283.07442729  .00000292  00000-0  32241-4 0  9991,2 55641  70.0007 247.3289 0002419 272.9586  87.1296 14.98327478 36439,6950.201,96.107,573.747,570.384,0.0
55641.0,STARLINK-5065,PAYLOAD,2023-10-10 08:11:42,14.98332417,0.0002527,70.0004,246.656,263.6433,96.4439,3.8902e-05,3.71e-06,0.0,0 STARLINK-5065,1 55641U 23021P   23283.34146237  .00000371  00000-0  38902-4 0  9994,2 55641  70.0004 246.6560 0002527 263.6433  96.4439 14.98332417 36473,6950.185,96.107,573.807,570.294,0.0
55641.0,STARLINK-5065,PAYLOAD,2023-10-10 21:00:47,14.98327479,0.0002836,70.0006,245.3092,272.3866,87.6968,-7.4457e-05,-9.81e-06,0.0,0 STARLINK-5065,1 55641U 23021P   23283.87554837 -.00000981  00000-0 -74457-4 0  9995,2 55641  70.0006 245.3092 0002836 272.3866  87.6968 14.98327479 36854,6950.201,96.107,574.037,570.095,0.0
55641.0,STARLINK-5065,PAYLOAD,2023-10-11 03:25:19,14.98324935,0.0002501,70.0004,244.6356,258.8301,101.2577,-3.8792e-05,-5.56e-06,0.0,0 STARLINK-5065,1 55641U 23021P   23284.14258867 -.00000556  00000-0 -38792-4 0  9990,2 55641  70.0004 244.6356 0002501 258.8301 101.2577 14.98324935 36593,6950.209,96.107,573.812,570.335,0.0
55641.0,STARLINK-5065,PAYLOAD,2023-10-11 06:37:35,14.98323547,0.0002573,70.0005,244.2993,259.4506,100.6363,-4.6584e-05,-6.49e-06,0.0,0 STARLINK-5065,1 55641U 23021P   23284.27611026 -.00000649  00000-0 -46584-4 0  9995,2 55641  70.0005 244.2993 0002573 259.4506 100.6363 14.98323547 36910,6950.213,96.107,573.866,570.29,0.0
55641.0,STARLINK-5065,PAYLOAD,2023-10-12 05:03:28,14.98327996,0.0002745,70.0004,241.9439,265.3146,94.7699,2.7729e-06,-6e-07,0.0,0 STARLINK-5065,1 55641U 23021P   23285.21074878 -.00000060  00000-0  27729-5 0  9995,2 55641  70.0004 241.9439 0002745 265.3146  94.7699 14.98327996 36754,6950.199,96.107,573.972,570.156,0.0
55641.0,STARLINK-5065,PAYLOAD,2023-10-12 06:39:36,14.98329307,0.0002789,70.0004,241.7758,265.1498,94.9343,6.6037e-06,-1.4e-07,0.0,0 STARLINK-5065,1 55641U 23021P   23285.27750799 -.00000014  00000-0  66037-5 0  9998,2 55641  70.0004 241.7758 0002789 265.1498  94.9343 14.98329307 37063,6950.195,96.107,573.998,570.122,0.0
55641.0,STARLINK-5065,PAYLOAD,2023-10-12 22:40:57,14.98325638,0.000293,69.9998,240.0911,265.1899,94.8925,6.155e-05,6.41e-06,0.0,0 STARLINK-5065,1 55641U 23021P   23285.94510871  .00000641  00000-0  61550-4 0  9996,2 55641  69.9998 240.0911 0002930 265.1899  94.8925 14.98325638 37167,6950.206,96.107,574.108,570.035,0.0
